CCSDS_OEM_VERS = 2.0
CREATION_DATE  = 2025-11-24T20:10:38.633
ORIGINATOR     = NASA/JSC/FOD/TOPO

META_START
OBJECT_NAME          = ISS
OBJECT_ID            = 1998-067-A
CENTER_NAME          = Earth
REF_FRAME            = EME2000
TIME_SYSTEM          = UTC
START_TIME           = 2025-11-24T12:00:00.000
USEABLE_START_TIME   = 2025-11-24T12:00:00.000
USEABLE_STOP_TIME    = 2025-12-09T12:00:00.000
STOP_TIME            = 2025-12-09T12:00:00.000
META_STOP

COMMENT Source: This file was produced by the TOPO office within FOD at JSC.
COMMENT Units are in kg and m^2
COMMENT MASS=494318.80
COMMENT DRAG_AREA=1526.60
COMMENT DRAG_COEFF=1.40
COMMENT SOLAR_RAD_AREA=0.00
COMMENT SOLAR_RAD_COEFF=0.00
COMMENT Orbits start at the ascending node epoch
COMMENT ISS first asc. node: EPOCH = 2025-11-24T13:04:24.020 $ ORBIT = 2003 $ LAN(DEG) = -27.30007
COMMENT ISS last asc. node : EPOCH = 2025-12-09T10:42:12.436 $ ORBIT = 2234 $ LAN(DEG) = -80.18615
COMMENT Begin sequence of events
COMMENT TRAJECTORY EVENT SUMMARY:
COMMENT 
COMMENT |       EVENT        |       TIG        | ORB |   DV    |   HA    |   HP    |
COMMENT |                    |       GMT        |     |   M/S   |   KM    |   KM    |
COMMENT |                    |                  |     |  (F/S)  |  (NM)   |  (NM)   |
COMMENT =============================================================================
COMMENT  74S Launch            331:09:27:57.000             0.0     425.6     412.4
COMMENT                                                    (0.0)   (229.8)   (222.7)
COMMENT 
COMMENT  74S Dock              331:12:38:32.000             0.0     425.6     412.5
COMMENT                                                    (0.0)   (229.8)   (222.7)
COMMENT 
COMMENT  73S Undock            343:01:40:00.000             0.0     423.1     413.9
COMMENT                                                    (0.0)   (228.5)   (223.5)
COMMENT 
COMMENT =============================================================================
COMMENT End sequence of events
2025-11-25T11:40:00.000 2103.903973045740 5756.727463255000 -2943.339815102520 -5.78461239562935 -0.43503937728939 -4.99838798440661
2025-11-25T11:44:00.000 656.091925317826 5444.711159083590 -4021.273540351610 -6.20689615189506 -2.14877222471540 -3.92983686938644
2025-11-25T11:48:00.000 -839.300285621420 4738.023947456640 -4806.911560119110 -6.17895027427826 -3.70408577406503 -2.57757346331902
2025-11-25T11:52:00.000 -2273.966555364040 3688.399247561210 -5243.657146665460 -5.70409367849518 -4.98945304211360 -1.04007975189723
2025-11-25T11:56:00.000 -3544.229817200600 2372.082671627420 -5300.193984452460 -4.81726544751675 -5.91323552050459 0.57169937222855
2025-11-25T12:00:00.000 -4558.335039170190 884.322098687767 -4972.569162407600 -3.58227140286994 -6.40957539801996 2.14197947111270
2025-11-25T12:04:00.000 -5242.880533099540 -667.362309762020 -4284.422709280350 -2.08741944751593 -6.44262468760639 3.55787194082682
2025-11-25T12:08:00.000 -5548.045049742950 -2170.732239967880 -3285.382287705050 -0.43981867137132 -6.00922720645670 4.71696149692806
2025-11-25T12:12:00.000 -5451.261757197920 -3516.810695216790 -2047.660753069930 1.24181433171214 -5.13963845837240 5.53461848702476
2025-11-25T12:16:00.000 -4959.033228259430 -4607.753387708010 -660.992305562741 2.83539871273137 -3.89592277534764 5.95042188538521
2025-11-25T12:20:00.000 -4106.667922171480 -5364.057102860710 773.804525697078 4.22450006154719 -2.36797347120390 5.93308242055507
2025-11-25T12:24:00.000 -2955.841744277290 -5730.508965804160 2152.198032782070 5.30724718823412 -0.66706590106066 5.48320795800462
2025-11-25T12:28:00.000 -1590.124449414070 -5680.343127360710 3373.679062064370 6.00426478920553 1.08255307120375 4.63350555645851
2025-11-25T12:32:00.000 -108.806529608953 -5217.213618018690 4349.200972669000 6.26471165242951 2.75325329693602 3.44613104240520
2025-11-25T12:36:00.000 1380.417636148420 -4374.857140968940 5007.695909407930 6.06977454801570 4.22350772220516 2.00778733616525
2025-11-25T12:40:00.000 2769.310111864500 -3214.556007217840 5301.213903425680 5.43371317763430 5.38668916601871 0.42322267761800
2025-11-25T12:44:00.000 3956.915928810540 -1820.628271253490 5208.344238546290 4.40255673572194 6.15853958448473 -1.19249405865841
2025-11-25T12:48:00.000 4856.822704280530 -294.342549470969 4735.728682109180 3.05075234518902 6.48289777658119 -2.72200938998496
2025-11-25T12:52:00.000 5403.401535230130 1253.349449467770 3917.626754184210 1.47605846363296 6.33573405535795 -4.05390041333409
2025-11-25T12:56:00.000 5556.627823584850 2709.802761437380 2813.526999025370 -0.20713112697763 5.72712372897617 -5.09062316673192
2025-11-25T13:00:00.000 5305.141177587650 3968.891840126210 1503.920813676990 -1.87581359538378 4.70109687062569 -5.75585161623331
2025-11-25T13:04:00.000 4667.212088571160 4938.878474918060 84.441811308111 -3.40765194743641 3.33279675049149 -6.00059062901521
2025-11-25T13:08:00.000 3689.446535450660 5549.258512805410 -1341.222096877970 -4.69039524355100 1.72289865607467 -5.80717338918121
2025-11-25T13:12:00.000 2443.295161351820 5755.990184338720 -2669.068936769260 -5.63060090500811 -0.01021655475309 -5.19065091299434
2025-11-25T13:16:00.000 1019.650480537000 5544.638375981110 -3802.516005493070 -6.16067632944037 -1.73983121298702 -4.19731022957450
2025-11-25T13:20:00.000 -477.959727909855 4931.212958889570 -4659.452797700220 -6.24347986548376 -3.34052673494994 -2.90061864924578
2025-11-25T13:24:00.000 -1940.985436919970 3960.749869592310 -5178.082456235780 -5.87442649822407 -4.69728280627356 -1.39526767779883
2025-11-25T13:28:00.000 -3263.655102705600 2703.842342969140 -5321.175805604650 -5.08100658777405 -5.71329508117497 0.20993316843788
2025-11-25T13:32:00.000 -4350.430332489940 1251.498372133960 -5078.559358371030 -3.92047555720796 -6.31615657587864 1.79960946287577
2025-11-25T13:36:00.000 -5122.703579674420 -291.310006364929 -4467.767188391230 -2.47587932987574 -6.46255873228110 3.25953200807762
2025-11-25T13:40:00.000 -5524.361632842250 -1813.028210429630 -3532.839339257610 -0.85060331046407 -6.14130906833937 4.48430741674458
2025-11-25T13:44:00.000 -5525.878364255580 -3203.405777050020 -2341.308702332820 0.83841410000152 -5.37449543895852 5.38472790372780
2025-11-25T13:48:00.000 -5126.631560965710 -4361.428152134620 -979.508137098621 2.46869225939192 -4.21668281300745 5.89437625734449
2025-11-25T13:52:00.000 -4355.154335345400 -5202.757071124760 453.597084207232 3.92128786704856 -2.75143872859264 5.97514594515939
2025-11-25T13:56:00.000 -3267.197394192860 -5666.007654045790 1853.636421020220 5.08978009835479 -1.08531300009115 5.62043370879059
2025-11-25T14:00:00.000 -1941.716711477920 -5717.350021757880 3118.536043707190 5.88847821342856 0.66008044406777 4.85587670539921
2025-11-25T14:04:00.000 -475.065407764723 -5353.030955113190 4156.073169530200 6.25901463755318 2.35733121854775 3.73738469395644
2025-11-25T14:08:00.000 1026.120409929460 -4599.601223797730 4890.652304739530 6.17454101721831 3.88288869685472 2.34669644096075
2025-11-25T14:12:00.000 2452.729011757490 -3511.890052122720 5268.784253998400 5.64133704205093 5.12606508398783 0.78512688139621
2025-11-25T14:16:00.000 3701.074532874000 -2168.957347754240 5262.909352132540 4.69802590846660 5.99679877569001 -0.83385479584761
2025-11-25T14:20:00.000 4680.355507619400 -668.365636786857 4873.357126119360 3.41272379310146 6.43184432223268 -2.39268445725327
2025-11-25T14:24:00.000 5319.206437505280 880.821926190706 4128.341057318780 1.87835038664803 6.39920183875545 -3.77791611323743
2025-11-25T14:28:00.000 5570.912807451630 2365.888528628350 3082.002172338510 0.20621134051757 5.90067139351267 -4.88823590008971
2025-11-25T14:32:00.000 5416.923840475340 3678.662052986100 1810.583187225340 -1.48168257054897 4.97218388358009 -5.64199215671013
2025-11-25T14:36:00.000 4868.355269999620 4723.490042902290 406.894734078494 -3.06170530649392 3.68152527500816 -5.98366397668793
2025-11-25T14:40:00.000 3965.254308962410 5424.357947233930 -1026.522611673240 -4.41794251927694 2.12358223392342 -5.88828327250669
2025-11-25T14:44:00.000 2773.629633264460 5730.570145201090 -2385.054011495910 -5.45141029067400 0.41300680692320 -5.36362726307261
2025-11-25T14:48:00.000 1380.445932904730 5620.409615346520 -3569.810453446400 -6.08751954409838 -1.32493563257611 -4.44925422874014
2025-11-25T14:52:00.000 -112.908460669013 5102.536074622970 -4494.883873848870 -6.28133136705167 -2.96397115662165 -3.21299155750309
2025-11-25T14:56:00.000 -1598.112971545000 4215.100945234970 -5093.491570582670 -6.02023200288091 -4.38608330245184 -1.74532773085688
2025-11-25T15:00:00.000 -2967.735636839200 3022.762850158920 -5322.613723031380 -5.32410128105785 -5.48963799342149 -0.15259031145656
2025-11-25T15:04:00.000 -4122.841739010800 1611.922575795040 -5165.893358180450 -4.24337977969064 -6.19603495705437 1.45064530735082
2025-11-25T15:08:00.000 -4979.924613474330 84.570925852568 -4634.695460576610 -2.85547635833026 -6.45467540884500 2.94922393976072
2025-11-25T15:12:00.000 -5476.797765324080 -1448.882151310770 -3767.320424047180 -1.25968055792592 -6.24643508907421 4.23510995332019
2025-11-25T15:16:00.000 -5577.090843588050 -2877.401446237700 -2626.391391008300 0.42936426894853 -5.58534103592319 5.21485480240443
2025-11-25T15:20:00.000 -5273.022760836650 -4097.280775343950 -1294.515221055920 2.08945415614239 -4.51818975742736 5.81645171175971
2025-11-25T15:24:00.000 -4586.176649977450 -5019.718053110030 131.582163444327 3.59958868214747 -3.12169972399619 5.99505396838479
2025-11-25T15:28:00.000 -3566.120168179060 -5577.424230741680 1548.075888936630 4.84911499546624 -1.49737835787235 5.73681693484586
2025-11-25T15:32:00.000 -2286.842732644390 -5729.697648275160 2851.710386863730 5.74649590864423 0.23620549459538 5.06031036920730
